      2.10          N: GNSS NAV DATA                        RINEX VERSION / TYPE
fic2rin                                 11/22/2019 00:19:33 PGM / RUN BY / DATE
                                                            END OF HEADER
16 19 11 21  8  0  0.0-9.527010843158e-05-3.751665644813e-12 0.000000000000e+00
    7.600000000000e+01-1.578125000000e+01 4.204460846956e-09-1.906475594304e+00
   -1.136213541031e-06 1.097210880835e-02 7.163733243942e-06 5.153667776108e+03
    3.744000000000e+05 1.415610313416e-07-1.841457771445e+00-8.568167686462e-08
    9.807834847003e-01 2.481250000000e+02 5.806665539956e-01-7.886757086518e-09
   -2.192948487964e-10 1.000000000000e+00 2.080000000000e+03 0.000000000000e+00
    2.400000000000e+00 0.000000000000e+00-1.024454832077e-08 7.600000000000e+01
    3.672000000000e+05 4.000000000000e+00
 9 19 11 21  8  0  0.0-8.880440145731e-05-9.663381206337e-12 0.000000000000e+00
    3.900000000000e+01-1.728125000000e+01 4.473400620806e-09-2.356934384418e+00
   -8.568167686462e-07 1.653740298934e-03 1.223571598530e-05 5.153563888550e+03
    3.744000000000e+05 5.774199962616e-08 2.244828261216e+00 9.313225746155e-09
    9.524697834467e-01 1.397500000000e+02 1.668745638137e+00-7.928901699153e-09
    5.571660653459e-11 1.000000000000e+00 2.080000000000e+03 0.000000000000e+00
    2.400000000000e+00 0.000000000000e+00 1.396983861923e-09 3.900000000000e+01
    3.672000000000e+05 4.000000000000e+00
10 19 11 21  8  0  0.0-1.428429968655e-04-1.466560206609e-11 0.000000000000e+00
    6.600000000000e+01-7.590625000000e+01 4.639121809473e-09-7.490667903928e-01
   -4.129484295845e-06 5.066309589893e-03 7.089227437973e-06 5.153660408020e+03
    3.744000000000e+05 1.173466444016e-07 1.209792863312e+00 4.842877388000e-08
    9.638204726599e-01 2.453750000000e+02-2.737273470221e+00-8.192841264724e-09
   -3.396570052205e-10 1.000000000000e+00 2.080000000000e+03 0.000000000000e+00
    2.400000000000e+00 0.000000000000e+00 1.862645149231e-09 6.600000000000e+01
    3.672000000000e+05 4.000000000000e+00
 6 19 11 21  8  0  0.0-1.303055323660e-04-1.182343112305e-11 0.000000000000e+00
    4.500000000000e+01 2.500000000000e+01 4.382325398586e-09 1.619376778709e+00
    1.240521669388e-06 1.567786792293e-03 5.468726158142e-06 5.153697830200e+03
    3.744000000000e+05-5.215406417847e-08 1.632516732303e-01 1.862645149231e-09
    9.777148326272e-01 2.802812500000e+02-1.206815822094e+00-8.134624554050e-09
    2.328668426958e-10 1.000000000000e+00 2.080000000000e+03 0.000000000000e+00
    2.400000000000e+00 0.000000000000e+00 4.656612873077e-09 4.500000000000e+01
    3.672000000000e+05 4.000000000000e+00
 8 19 11 21  8  0  0.0-1.409044489264e-05-1.250555214938e-12 0.000000000000e+00
    7.500000000000e+01 3.634375000000e+01 4.172673808613e-09-2.639093269445e+00
    1.953914761543e-06 4.713893635198e-03 1.083314418793e-05 5.153592760086e+03
    3.744000000000e+05-7.450580596924e-08-8.962636779397e-01 1.303851604462e-08
    9.701938800808e-01 1.771875000000e+02-2.362656541671e-01-7.854970048174e-09
    7.107438910502e-11 1.000000000000e+00 2.080000000000e+03 0.000000000000e+00
    2.400000000000e+00 0.000000000000e+00 5.122274160385e-09 7.500000000000e+01
    3.672000000000e+05 4.000000000000e+00
22 19 11 21  8  0  0.0-7.730466313660e-04-2.387423592154e-12 0.000000000000e+00
    5.600000000000e+01-8.703125000000e+01 5.492371636467e-09 2.486841837550e+00
   -4.500150680542e-06 6.870999000967e-03 5.709007382393e-06 5.153646665573e+03
    3.744000000000e+05 1.210719347000e-07 1.133327051095e+00 3.911554813385e-08
    9.286022881498e-01 2.487500000000e+02-1.260783045589e+00-8.568571201098e-09
   -3.378712165495e-10 1.000000000000e+00 2.080000000000e+03 0.000000000000e+00
    2.400000000000e+00 0.000000000000e+00-1.816079020500e-08 5.600000000000e+01
    3.672000000000e+05 4.000000000000e+00
13 19 11 21  8  0  0.0-3.151735290885e-05 2.387423592154e-12 0.000000000000e+00
    4.100000000000e+01 2.687500000000e+00 4.119100148483e-09 2.546789155625e+00
    1.844018697739e-07 4.077144898474e-03 1.170299947262e-05 5.153670265198e+03
    3.744000000000e+05 8.195638656616e-08 2.384781727868e+00-3.352761268616e-08
    9.678771810667e-01 1.576562500000e+02 1.186784332068e+00-7.716392847306e-09
    1.371485699313e-10 1.000000000000e+00 2.080000000000e+03 0.000000000000e+00
    2.400000000000e+00 0.000000000000e+00-1.117587089539e-08 4.100000000000e+01
    3.672000000000e+05 4.000000000000e+00
14 19 11 21  8  0  0.0-4.928046837449e-05 2.160049916711e-12 0.000000000000e+00
    9.800000000000e+01 1.587500000000e+01 4.145886978548e-09 3.110603210801e+00
    8.102506399155e-07 1.073685637675e-02 1.216679811478e-05 5.153768903732e+03
    3.744000000000e+05 3.166496753693e-08 2.339149967282e+00-7.450580596924e-09
    9.604250822226e-01 1.411562500000e+02-1.934664621290e+00-7.603888161035e-09
    1.789360248322e-10 1.000000000000e+00 2.080000000000e+03 0.000000000000e+00
    2.400000000000e+00 0.000000000000e+00-9.778887033463e-09 9.800000000000e+01
    3.672000000000e+05 4.000000000000e+00
12 19 11 21  8  0  0.0 1.813042908907e-04-3.979039320257e-12 0.000000000000e+00
    5.100000000000e+01-2.021875000000e+01 4.309465220810e-09-2.812759027847e-02
   -1.149252057076e-06 7.623289013281e-03 7.018446922302e-06 5.153789934158e+03
    3.744000000000e+05-7.636845111847e-08-1.860363222704e+00 1.043081283569e-07
    9.804950660123e-01 2.605000000000e+02 1.094859867434e+00-8.148196547949e-09
   -2.939408152434e-10 1.000000000000e+00 2.080000000000e+03 0.000000000000e+00
    2.400000000000e+00 0.000000000000e+00-1.257285475731e-08 5.100000000000e+01
    3.672000000000e+05 4.000000000000e+00
31 19 11 21  8  0  0.0-4.628673195839e-06-2.614797267597e-12 0.000000000000e+00
    7.700000000000e+01 5.121875000000e+01 4.822700884850e-09 2.364008716852e-01
    2.797693014145e-06 9.561531944200e-03 5.934387445450e-06 5.153730054855e+03
    3.744000000000e+05 1.695007085800e-07-2.948838274882e+00 5.587935447693e-09
    9.591524883225e-01 2.614062500000e+02 6.537331048936e-02-8.407493062976e-09
    2.242950570751e-10 1.000000000000e+00 2.080000000000e+03 0.000000000000e+00
    3.400000000000e+00 0.000000000000e+00-1.350417733192e-08 7.700000000000e+01
    3.672000000000e+05 4.000000000000e+00
27 19 11 21  8  0  0.0-1.265541650355e-04-1.182343112305e-11 0.000000000000e+00
    3.900000000000e+01 3.962500000000e+01 3.925520656549e-09-2.851279672386e+00
    1.905485987663e-06 7.367745041847e-03 1.083500683308e-05 5.153662460327e+03
    3.744000000000e+05-5.215406417847e-08-8.834914258784e-01-1.136213541031e-07
    9.785546280652e-01 1.812812500000e+02 5.003435636949e-01-7.716750005041e-09
    8.571785620706e-11 1.000000000000e+00 2.080000000000e+03 0.000000000000e+00
    2.400000000000e+00 0.000000000000e+00 1.862645149231e-09 3.900000000000e+01
    3.672000000000e+05 4.000000000000e+00
25 19 11 21  8  0  0.0-1.728767529130e-05-2.273736754432e-13 0.000000000000e+00
    4.000000000000e+01-1.484375000000e+01 4.615906556750e-09-4.384081838377e-01
   -6.854534149170e-07 8.609420969151e-03 6.308779120445e-06 5.153630788803e+03
    3.744000000000e+05-3.352761268616e-08-1.926943605919e+00 1.341104507446e-07
    9.678922813071e-01 2.655937500000e+02 8.879207248908e-01-8.336418673871e-09
   -3.025126008641e-10 1.000000000000e+00 2.080000000000e+03 0.000000000000e+00
    2.400000000000e+00 0.000000000000e+00 5.587935447693e-09 4.000000000000e+01
    3.672000000000e+05 4.000000000000e+00
30 19 11 21  8  0  0.0-8.860928937793e-05-8.412825991400e-12 0.000000000000e+00
    5.000000000000e+01 6.040625000000e+01 5.218074496605e-09 5.189455399133e-01
    3.188848495483e-06 4.153151996434e-03 6.370246410370e-06 5.153722862244e+03
    3.744000000000e+05 4.470348358154e-08-2.938110714162e+00 7.264316082001e-08
    9.400372121860e-01 2.447187500000e+02-2.909333381985e+00-8.523212168855e-09
    2.503675716715e-10 1.000000000000e+00 2.080000000000e+03 0.000000000000e+00
    2.400000000000e+00 0.000000000000e+00 3.725290298462e-09 5.000000000000e+01
    3.672000000000e+05 4.000000000000e+00
23 19 11 21  8  0  0.0-1.542628742754e-04 2.273736754432e-12 0.000000000000e+00
    9.600000000000e+01-1.475000000000e+01 4.736268713174e-09 1.987729097055e+00
   -9.331852197647e-07 1.323222299106e-02 1.272000372410e-05 5.153724514008e+03
    3.744000000000e+05-2.104789018631e-07 2.238027324764e+00-2.067536115646e-07
    9.432749410161e-01 1.259062500000e+02-2.219512111291e+00-8.046049435969e-09
    7.750322832055e-11 1.000000000000e+00 2.080000000000e+03 0.000000000000e+00
    2.400000000000e+00 0.000000000000e+00-2.048909664154e-08 9.600000000000e+01
    3.672000000000e+05 4.000000000000e+00
19 19 11 21  8  0  0.0-2.368562854826e-04 5.229594535194e-12 0.000000000000e+00
    8.800000000000e+01 2.096875000000e+01 3.980880105350e-09-2.080791082901e-01
    1.180917024612e-06 9.198785293847e-03 1.041404902935e-05 5.153661911011e+03
    3.744000000000e+05-9.685754776001e-08-7.803210476866e-01 1.676380634308e-08
    9.823141139429e-01 1.928750000000e+02 1.530611033625e+00-7.963903157104e-09
    1.153619481453e-10 1.000000000000e+00 2.080000000000e+03 0.000000000000e+00
    2.400000000000e+00 0.000000000000e+00-1.536682248116e-08 8.800000000000e+01
    3.672000000000e+05 4.000000000000e+00
21 19 11 21  8  0  0.0-8.277175948024e-05 5.911715561524e-12 0.000000000000e+00
    9.000000000000e+01 2.500000000000e+01 5.166286625146e-09-6.142044600583e-01
    1.423060894012e-06 2.458984195255e-02 5.409121513367e-06 5.153612119675e+03
    3.744000000000e+05-2.793967723846e-07 1.024780668400e-01 1.676380634308e-08
    9.510319383204e-01 2.751250000000e+02-1.396105343700e+00-8.970373652069e-09
    3.932306653499e-10 1.000000000000e+00 2.080000000000e+03 0.000000000000e+00
    2.400000000000e+00 0.000000000000e+00-1.024454832077e-08 9.000000000000e+01
    3.672000000000e+05 4.000000000000e+00
